QIANFAN-25              
1 61558U 24185G   25291.13515705  .00000794  00000+0  47776-3 0  9994
2 61558  88.9762  84.4765 0010412 115.0981 245.1283 14.05828522 61698
QIANFAN-26              
1 61559U 24185H   25291.19093292  .00000434  00000+0  42145-3 0  9999
2 61559  88.9760  85.7411 0006100 162.2544 197.8836 13.77764675 61027
QIANFAN-27              
1 61560U 24185J   25291.15278247  .00001038  00000+0  41888-3 0  9996
2 61560  88.9759  83.4555 0010016 108.1433 252.0852 14.27224327 62235
QIANFAN-28              
1 61561U 24185K   25291.16091780  .00001404  00000+0  56191-3 0  9993
2 61561  88.9775  83.4533 0009152 107.7407 252.4787 14.27856169 62242
QIANFAN-29              
1 61562U 24185L   25291.19143220  .00000261  00000+0  38642-3 0  9995
2 61562  88.9736  87.0461 0009392 202.7813 157.2922 13.50982284 60292
QIANFAN-30              
1 61563U 24185M   25291.19837419  .00000263  00000+0  39443-3 0  9998
2 61563  88.9756  86.5494 0007372 183.3924 176.7178 13.49959617 60570
QIANFAN-31              
1 61564U 24185N   25291.19802079  .00000298  00000+0  39664-3 0  9996
2 61564  88.9741  86.4393 0007102 179.0680 181.0490 13.57933068 60627
QIANFAN-32              
1 61565U 24185P   25291.19754256  .00000262  00000+0  38907-3 0  9990
2 61565  88.9799  86.6668 0008360 214.1305 145.9309 13.50711039 60544
